[{"OBJECT_NAME":"STARLINK-3809","OBJECT_ID":"2022-062X","EPOCH":"2026-03-09T04:09:30.194496","MEAN_MOTION":15.08837001,"ECCENTRICITY":0.00012823,"INCLINATION":53.2191,"RA_OF_ASC_NODE":26.437,"ARG_OF_PERICENTER":90.8773,"MEAN_ANOMALY":269.2366,"EPHEMERIS_TYPE":0,"CLASSIFICATION_TYPE":"U","NORAD_CAT_ID":52851,"ELEMENT_SET_NO":999,"REV_AT_EPOCH":20584,"BSTAR":1.443992e-5,"MEAN_MOTION_DOT":-5.8e-7,"MEAN_MOTION_DDOT":0},{"OBJECT_NAME":"DMSP 5D-2 F11 DEB","OBJECT_ID":"1991-082AJ","EPOCH":"2026-03-09T06:39:32.486112","MEAN_MOTION":15.08629375,"ECCENTRICITY":0.00070318,"INCLINATION":98.5181,"RA_OF_ASC_NODE":189.4283,"ARG_OF_PERICENTER":237.8685,"MEAN_ANOMALY":152.6153,"EPHEMERIS_TYPE":0,"CLASSIFICATION_TYPE":"U","NORAD_CAT_ID":28321,"ELEMENT_SET_NO":999,"REV_AT_EPOCH":14288,"BSTAR":0.0082823802,"MEAN_MOTION_DOT":0.00131946,"MEAN_MOTION_DDOT":0}]
